*******************************************************************************
Ephemeris / WWW_USER Tue Apr  8 07:43:26 2025 Pasadena, USA      / Horizons    
*******************************************************************************
Target body name: 768325 (2015 BP519)             {source: JPL#13}
Center body name: Earth (399)                     {source: DE441}
Center-site name: Gemini South Obs., Cerro Pachon
*******************************************************************************
Start time      : A.D. 2018-Oct-02 22:53:00.0000 UT      
Stop  time      : A.D. 2018-Oct-03 10:10:00.0000 UT      
Step-size       : 1 minutes
*******************************************************************************
Target pole/equ : undefined
Target radii    : undefined                                                    
Center geodetic : 289.2634, -30.2406227, 2.71233  {E-lon(deg),Lat(deg),Alt(km)}
Center cylindric: 289.2634,5517.21435,-3194.81213 {E-lon(deg),Dxy(km),Dz(km)}
Center pole/equ : ITRF93                          {East-longitude positive}
Center radii    : 6378.137, 6378.137, 6356.752 km {Equator_a, b, pole_c}       
Target primary  : Sun
Vis. interferer : MOON (R_eq= 1737.400) km        {source: DE441}
Rel. light bend : Sun                             {source: DE441}
Rel. lght bnd GM: 1.3271E+11 km^3/s^2                                          
Small-body perts: Yes                             {source: SB441-N16}
Atmos refraction: NO (AIRLESS)
RA format       : HMS
Time format     : CAL 
Calendar mode   : Mixed Julian/Gregorian
RTS-only print  : NO       
EOP file        : eop.250407.p250704                                           
EOP coverage    : DATA-BASED 1962-JAN-20 TO 2025-APR-07. PREDICTS-> 2025-JUL-03
Units conversion: 1 au= 149597870.700 km, c= 299792.458 km/s, 1 day= 86400.0 s 
Table cut-offs 1: Elevation (-90.0deg=NO ),Airmass (>38.000=NO), Daylight (YES)
Table cut-offs 2: Solar elongation (  0.0,180.0=NO ),Local Hour Angle( 0.0=NO )
Table cut-offs 3: RA/DEC angular rate (     0.0=NO )                           
*******************************************************************************
Initial IAU76/J2000 heliocentric ecliptic osculating elements (au, days, deg.):
  EPOCH=  2459486.5 ! 2021-Sep-29.00 (TDB)         Residual RMS= .071772       
   EC= .9216453194433936   QR= 35.32438628437644   TP= 2473006.6899544764      
   OM= 135.0347983875217   W=  347.957608556413    IN= 54.13315864151695       
  Equivalent ICRF heliocentric cartesian coordinates (au, au/d):
   X= 1.447262462803667E+01  Y= 4.058013389773870E+01  Z=-2.635496110070412E+01
  VX=-2.666905795807619E-03 VY= 1.989051018714909E-05 VZ= 1.987184001515517E-03
Asteroid physical parameters (km, seconds, rotational period in hours):        
   GM= n.a.                RAD= n.a.               ROTPER= n.a.                
   H= 4.34                 G= .150                 B-V= n.a.                   
                           ALBEDO= n.a.            STYP= n.a.                  
*******************************************************************************
 Date__(UT)__HR:MN     R.A._________(ICRF)_________DEC
******************************************************
$$SOE
 2018-Oct-03 07:05  m  04 31 39.215731 -33 15 06.00673
 2018-Oct-03 07:06  m  04 31 39.214299 -33 15 06.03909
 2018-Oct-03 07:07  m  04 31 39.212867 -33 15 06.07144
 2018-Oct-03 07:08  m  04 31 39.211435 -33 15 06.10380
 2018-Oct-03 07:09  m  04 31 39.210002 -33 15 06.13615
 2018-Oct-03 07:10  m  04 31 39.208570 -33 15 06.16850
 2018-Oct-03 07:11  m  04 31 39.207137 -33 15 06.20085
 2018-Oct-03 07:12  m  04 31 39.205704 -33 15 06.23319
 2018-Oct-03 07:13  m  04 31 39.204271 -33 15 06.26554
 2018-Oct-03 07:14  m  04 31 39.202838 -33 15 06.29788
 2018-Oct-03 07:15  m  04 31 39.201405 -33 15 06.33022
 2018-Oct-03 07:16  m  04 31 39.199972 -33 15 06.36256
 2018-Oct-03 07:17  m  04 31 39.198538 -33 15 06.39490
 2018-Oct-03 07:18  m  04 31 39.197105 -33 15 06.42724
 2018-Oct-03 07:19  m  04 31 39.195671 -33 15 06.45957
 2018-Oct-03 07:20  m  04 31 39.194238 -33 15 06.49191
 2018-Oct-03 07:21  m  04 31 39.192804 -33 15 06.52424
 2018-Oct-03 07:22  m  04 31 39.191370 -33 15 06.55657
 2018-Oct-03 07:23  m  04 31 39.189936 -33 15 06.58890
 2018-Oct-03 07:24  m  04 31 39.188502 -33 15 06.62123
 2018-Oct-03 07:25  m  04 31 39.187068 -33 15 06.65355
 2018-Oct-03 07:26  m  04 31 39.185633 -33 15 06.68587
 2018-Oct-03 07:27  m  04 31 39.184199 -33 15 06.71820
 2018-Oct-03 07:28  m  04 31 39.182765 -33 15 06.75052
 2018-Oct-03 07:29  m  04 31 39.181330 -33 15 06.78284
 2018-Oct-03 07:30  m  04 31 39.179895 -33 15 06.81515
 2018-Oct-03 07:31  m  04 31 39.178461 -33 15 06.84747
 2018-Oct-03 07:32  m  04 31 39.177026 -33 15 06.87978
 2018-Oct-03 07:33  m  04 31 39.175591 -33 15 06.91209
 2018-Oct-03 07:34  m  04 31 39.174156 -33 15 06.94440
 2018-Oct-03 07:35  m  04 31 39.172721 -33 15 06.97671
 2018-Oct-03 07:36  m  04 31 39.171285 -33 15 07.00902
 2018-Oct-03 07:37  m  04 31 39.169850 -33 15 07.04133
 2018-Oct-03 07:38  m  04 31 39.168415 -33 15 07.07363
 2018-Oct-03 07:39  m  04 31 39.166979 -33 15 07.10593
 2018-Oct-03 07:40  m  04 31 39.165543 -33 15 07.13823
 2018-Oct-03 07:41  m  04 31 39.164108 -33 15 07.17053
 2018-Oct-03 07:42  m  04 31 39.162672 -33 15 07.20283
 2018-Oct-03 07:43  m  04 31 39.161236 -33 15 07.23512
 2018-Oct-03 07:44  m  04 31 39.159800 -33 15 07.26742
 2018-Oct-03 07:45  m  04 31 39.158364 -33 15 07.29971
 2018-Oct-03 07:46  m  04 31 39.156928 -33 15 07.33200
 2018-Oct-03 07:47  m  04 31 39.155492 -33 15 07.36429
 2018-Oct-03 07:48  m  04 31 39.154056 -33 15 07.39657
 2018-Oct-03 07:49  m  04 31 39.152620 -33 15 07.42886
 2018-Oct-03 07:50  m  04 31 39.151183 -33 15 07.46114
 2018-Oct-03 07:51  m  04 31 39.149747 -33 15 07.49342
 2018-Oct-03 07:52  m  04 31 39.148310 -33 15 07.52570
 2018-Oct-03 07:53  m  04 31 39.146873 -33 15 07.55798
 2018-Oct-03 07:54  m  04 31 39.145437 -33 15 07.59026
 2018-Oct-03 07:55  m  04 31 39.144000 -33 15 07.62253
 2018-Oct-03 07:56  m  04 31 39.142563 -33 15 07.65481
 2018-Oct-03 07:57  m  04 31 39.141126 -33 15 07.68708
 2018-Oct-03 07:58  m  04 31 39.139689 -33 15 07.71935
 2018-Oct-03 07:59  m  04 31 39.138252 -33 15 07.75162
 2018-Oct-03 08:00  m  04 31 39.136815 -33 15 07.78388
 2018-Oct-03 08:01  m  04 31 39.135378 -33 15 07.81615
 2018-Oct-03 08:02  m  04 31 39.133941 -33 15 07.84841
 2018-Oct-03 08:03  m  04 31 39.132503 -33 15 07.88067
 2018-Oct-03 08:04  m  04 31 39.131066 -33 15 07.91293
 2018-Oct-03 08:05  m  04 31 39.129629 -33 15 07.94519
 2018-Oct-03 08:06  m  04 31 39.128191 -33 15 07.97745
 2018-Oct-03 08:07  m  04 31 39.126754 -33 15 08.00970
 2018-Oct-03 08:08  m  04 31 39.125316 -33 15 08.04195
 2018-Oct-03 08:09  m  04 31 39.123878 -33 15 08.07420
 2018-Oct-03 08:10  m  04 31 39.122441 -33 15 08.10645
 2018-Oct-03 08:11  m  04 31 39.121003 -33 15 08.13870
 2018-Oct-03 08:12  m  04 31 39.119565 -33 15 08.17095
 2018-Oct-03 08:13  m  04 31 39.118127 -33 15 08.20319
 2018-Oct-03 08:14  m  04 31 39.116689 -33 15 08.23543
 2018-Oct-03 08:15  m  04 31 39.115251 -33 15 08.26767
 2018-Oct-03 08:16  m  04 31 39.113813 -33 15 08.29991
 2018-Oct-03 08:17  m  04 31 39.112375 -33 15 08.33215
 2018-Oct-03 08:18  m  04 31 39.110937 -33 15 08.36439
 2018-Oct-03 08:19  m  04 31 39.109499 -33 15 08.39662
 2018-Oct-03 08:20  m  04 31 39.108060 -33 15 08.42885
 2018-Oct-03 08:21  m  04 31 39.106622 -33 15 08.46108
 2018-Oct-03 08:22  m  04 31 39.105184 -33 15 08.49331
 2018-Oct-03 08:23  m  04 31 39.103745 -33 15 08.52554
 2018-Oct-03 08:24  m  04 31 39.102307 -33 15 08.55776
 2018-Oct-03 08:25  m  04 31 39.100869 -33 15 08.58999
 2018-Oct-03 08:26  m  04 31 39.099430 -33 15 08.62221
 2018-Oct-03 08:27  m  04 31 39.097991 -33 15 08.65443
 2018-Oct-03 08:28  t  04 31 39.096553 -33 15 08.68665
 2018-Oct-03 08:29  m  04 31 39.095114 -33 15 08.71887
 2018-Oct-03 08:30  m  04 31 39.093676 -33 15 08.75108
 2018-Oct-03 08:31  m  04 31 39.092237 -33 15 08.78329
 2018-Oct-03 08:32  m  04 31 39.090798 -33 15 08.81551
 2018-Oct-03 08:33  m  04 31 39.089359 -33 15 08.84772
 2018-Oct-03 08:34  m  04 31 39.087921 -33 15 08.87992
 2018-Oct-03 08:35  m  04 31 39.086482 -33 15 08.91213
 2018-Oct-03 08:36  m  04 31 39.085043 -33 15 08.94434
 2018-Oct-03 08:37  m  04 31 39.083604 -33 15 08.97654
 2018-Oct-03 08:38  m  04 31 39.082165 -33 15 09.00874
 2018-Oct-03 08:39  m  04 31 39.080726 -33 15 09.04094
 2018-Oct-03 08:40  m  04 31 39.079287 -33 15 09.07314
 2018-Oct-03 08:41  m  04 31 39.077848 -33 15 09.10533
 2018-Oct-03 08:42  m  04 31 39.076409 -33 15 09.13753
 2018-Oct-03 08:43  m  04 31 39.074970 -33 15 09.16972
 2018-Oct-03 08:44  m  04 31 39.073531 -33 15 09.20191
 2018-Oct-03 08:45  m  04 31 39.072092 -33 15 09.23410
 2018-Oct-03 08:46  m  04 31 39.070653 -33 15 09.26629
 2018-Oct-03 08:47  m  04 31 39.069213 -33 15 09.29848
 2018-Oct-03 08:48  m  04 31 39.067774 -33 15 09.33066
 2018-Oct-03 08:49  m  04 31 39.066335 -33 15 09.36284
 2018-Oct-03 08:50  m  04 31 39.064896 -33 15 09.39502
 2018-Oct-03 08:51  m  04 31 39.063457 -33 15 09.42720
 2018-Oct-03 08:52  m  04 31 39.062017 -33 15 09.45938
 2018-Oct-03 08:53  m  04 31 39.060578 -33 15 09.49156
 2018-Oct-03 08:54  m  04 31 39.059139 -33 15 09.52373
 2018-Oct-03 08:55  m  04 31 39.057699 -33 15 09.55590
 2018-Oct-03 08:56  m  04 31 39.056260 -33 15 09.58807
 2018-Oct-03 08:57  m  04 31 39.054821 -33 15 09.62024
 2018-Oct-03 08:58 Am  04 31 39.053382 -33 15 09.65241
 2018-Oct-03 08:59 Am  04 31 39.051942 -33 15 09.68458
 2018-Oct-03 09:00 Am  04 31 39.050503 -33 15 09.71674
 2018-Oct-03 09:01 Am  04 31 39.049063 -33 15 09.74890
 2018-Oct-03 09:02 Am  04 31 39.047624 -33 15 09.78106
 2018-Oct-03 09:03 Am  04 31 39.046185 -33 15 09.81322
 2018-Oct-03 09:04 Am  04 31 39.044745 -33 15 09.84538
 2018-Oct-03 09:05 Am  04 31 39.043306 -33 15 09.87753
 2018-Oct-03 09:06 Am  04 31 39.041867 -33 15 09.90969
 2018-Oct-03 09:07 Am  04 31 39.040427 -33 15 09.94184
